satname,norad_id,inclination_deg,eccentricity,mean_motion_rev_per_day,perigee_km,apogee_km,l1,l2
STARLINK-1452,45669,53.0334,0.00067,15.4110247,438.2842575401355,447.42438591124665,1 45669U 20035N   26043.48229484  .00085076  00000+0  20110-2 0  9997,2 45669  53.0334 141.4482 0006700 308.2118  51.8283 15.41102470315472
STARLINK-1453,45670,53.0491,0.0006712,15.4755912,419.3034621557126,428.4344749679094,1 45670U 20035P   26043.91670139  .00056693  00000+0  10833-2 0  9998,2 45670  53.0491 132.1741 0006712 305.4383 264.2876 15.47559120  5837
STARLINK-1454,45671,53.0509,0.0005665,15.46200769,423.99654077203104,431.7077264604177,1 45671U 20035Q   26043.77179162  .00107071  00000+0  21231-2 0  9994,2 45671  53.0509 172.1328 0005665 320.0869  39.9720 15.46200769315055
STARLINK-1456,45673,53.0488,0.0003435,15.44785052,429.6704421304639,434.34901293227813,1 45673U 20035S   26043.91670139  .00091056  00000+0  19009-2 0  9997,2 45673  53.0488 164.8826 0003435 251.6196 230.6917 15.44785052  5942
STARLINK-1457,45674,53.0473,0.0007991,15.71690675,348.68506749777043,359.4444723664765,1 45674U 20035T   26043.91670139  .00157205  00000+0  11747-2 0  9998,2 45674  53.0473 145.8816 0007991 339.3888 338.1361 15.71690675  5873
STARLINK-1458,45675,53.0536,0.0002094,15.39503102,446.1483537556196,449.0069630545595,1 45675U 20035U   26043.58465904  .00032597  00000+0  82449-3 0  9998,2 45675  53.0536 174.3978 0002094  14.6082 345.4981 15.39503102314984
STARLINK-1460,45676,53.0564,0.0001223,15.06397202,546.3731622411487,548.0671045959825,1 45676U 20035V   26043.75482429 -.00000077  00000+0  13720-4 0  9995,2 45676  53.0564 178.5555 0001223  82.2263 277.8865 15.06397202314938
STARLINK-1392,45677,53.0568,0.0001451,15.06398076,546.2125857960664,548.222323658827,1 45677U 20035W   26043.63318736  .00000884  00000+0  78253-4 0  9999,2 45677  53.0568 179.1028 0001451  81.3144 278.8010 15.06398076314951
STARLINK-1394,45679,53.0523,0.0003544,15.43090688,434.578709002908,439.40927384963106,1 45679U 20035Y   26043.48386451  .00064279  00000+0  14287-2 0  9996,2 45679  53.0523 156.9545 0003544 216.6426 143.4337 15.43090688315254
STARLINK-1402,45685,53.0496,0.0003959,15.41071868,440.24415425807547,445.64508668516555,1 45685U 20035AE  26043.65034094  .00036577  00000+0  87686-3 0  9999,2 45685  53.0496 142.2574 0003959 192.7456 167.3449 15.41071868315488
STARLINK-1404,45686,53.1563,0.0002218,15.29441657,475.9597045404489,479.00085636605854,1 45686U 20035AF  26043.74555490  .00039556  00000+0  13722-2 0  9997,2 45686  53.1563 165.5587 0002218  52.6240 307.4962 15.29441657315153
STARLINK-1413,45689,53.1593,0.0001099,15.30205188,474.4463973401971,475.9527607202681,1 45689U 20035AJ  26043.75193048  .00004553  00000+0  16572-3 0  9994,2 45689  53.1593 165.4094 0001099  81.9634 278.1491 15.30205188315070
STARLINK-1417,45693,53.0514,0.0005233,15.11082908,529.2796541484222,536.5127414932613,1 45693U 20035AN  26043.60804159  .00027939  00000+0  16607-2 0  9996,2 45693  53.0514 167.8526 0005233 162.5088 197.6084 15.11082908315105
STARLINK-1420,45695,53.0549,0.000231,15.4782516,421.51844426616844,424.6606109219174,1 45695U 20035AQ  26043.66308959  .00024568  00000+0  47210-3 0  9991,2 45695  53.0549 142.5302 0002310  28.5170 331.5963 15.47825160315472
STARLINK-1422,45696,53.1604,0.0001197,15.30103617,474.6824860984607,476.32324748256997,1 45696U 20035AR  26043.82467088  .00040641  00000+0  13809-2 0  9995,2 45696  53.1604 165.0776 0001197 105.5838 254.5294 15.30103617315165
STARLINK-1351,45697,53.0538,0.0001385,15.49189463,418.1544972136062,420.0373307307773,1 45697U 20035AS  26043.51157113  .00027374  00000+0  50057-3 0  9992,2 45697  53.0538 142.4757 0001385  65.3728 294.7424 15.49189463315466
STARLINK-1398,45699,53.0411,0.0005104,15.80949594,324.33135077851693,331.17672434966335,1 45699U 20035AU  26043.91670139  .00233716  00000+0  11511-2 0  9996,2 45699  53.0411  64.9536 0005104  14.8716  58.4161 15.80949594  6037
STARLINK-1400,45700,53.0522,0.0004697,15.46062962,425.0595952348849,431.4535213435429,1 45700U 20035AV  26043.83330950  .00076526  00000+0  15334-2 0  9995,2 45700  53.0522 141.8877 0004697   1.6238 358.4783 15.46062962315498
STARLINK-1403,45701,53.0566,0.0001421,15.06396895,546.2369809500588,548.2051677147838,1 45701U 20035AW  26043.66175326  .00000131  00000+0  27698-4 0  9998,2 45701  53.0566 148.9761 0001421  98.1530 261.9620 15.06396895315371
STARLINK-1407,45703,53.0359,0.0012703,15.5579886,391.22138234560225,408.4414889532136,1 45703U 20035AY  26043.91670139  .00120142  00000+0  16850-2 0  9991,2 45703  53.0359  75.9838 0012703  14.3829 291.3130 15.55798860  5970
STARLINK-1411,45706,53.0457,0.0004602,15.57387255,392.10493973287794,398.3391393928914,1 45706U 20035BB  26043.44368319  .00085666  00000+0  11427-2 0  9992,2 45706  53.0457 104.3334 0004602  23.5704 336.5517 15.57387255315983
STARLINK-1423,45710,53.0528,0.0003371,15.48012318,420.2488193275176,424.83383665625024,1 45710U 20035BF  26043.64161559  .00079825  00000+0  14946-2 0  9995,2 45710  53.0528 142.2384 0003371  14.6283 345.4821 15.48012318315463
STARLINK-1433,45711,53.052,0.0004294,15.50093047,413.5365534982111,419.3717483786377,1 45711U 20035BG  26043.82887978  .00083236  00000+0  14477-2 0  9996,2 45711  53.0520 140.7591 0004294   8.5929 351.5151 15.50093047315503
STARLINK-1434,45712,53.0507,0.0002105,15.24267225,491.5403260366438,494.43306911332274,1 45712U 20035BH  26043.47404587  .00040117  00000+0  16267-2 0  9999,2 45712  53.0507 136.5870 0002105 357.3238   2.7747 15.24267225315541
STARLINK-1465,45731,53.0544,0.0003875,15.46105897,425.49312105651916,430.7679784075608,1 45731U 20038B   26043.85126657  .00060996  00000+0  12247-2 0  9995,2 45731  53.0544 341.9656 0003875 113.4389 246.7025 15.46105897312535
STARLINK-1471,45735,53.0466,0.0004193,15.47444672,421.35212398885415,427.05656744137013,1 45735U 20038F   26043.79169534  .00022181  00000+0  43276-3 0  9994,2 45735  53.0466 261.1692 0004193 136.5169 223.6169 15.47444672313678
STARLINK-1474,45738,53.0202,0.0007215,16.06301336,252.2219060797097,261.79642199441605,1 45738U 20038J   26043.92580821  .00508441  13507-3  66635-3 0  9990,2 45738  53.0202 189.5439 0007215 304.9276  55.1077 16.06301336314671
STARLINK-1480,45741,53.0542,0.0010701,15.44414774,425.8094831191802,440.3868886640257,1 45741U 20038M   26043.84467478  .00062718  00000+0  13313-2 0  9993,2 45741  53.0542 335.7764 0010701  93.2588 266.9642 15.44414774312632
STARLINK-1500,45744,53.039,0.0004301,15.33361309,462.84861739286043,468.73576528324975,1 45744U 20038Q   26043.13826965  .00026791  00000+0  82766-3 0  9998,2 45744  53.0390 312.4669 0004301 138.4885 221.6443 15.33361309312891
STARLINK-1504,45746,53.0229,0.0004089,15.51429521,409.7747587495451,415.3281837813465,1 45746U 20038S   26043.76944219  .00027484  00000+0  46427-3 0  9996,2 45746  53.0229 262.2459 0004089 122.8242 237.3161 15.51429521313646
STARLINK-1506,45747,53.0761,0.0004733,15.25434687,486.23001894762183,492.730905637427,1 45747U 20038T   26043.17844113  .00010972  00000+0  44101-3 0  9995,2 45747  53.0761 320.2849 0004733 147.3835 212.7456 15.25434687312791
STARLINK-1464,45751,53.0548,0.0004466,15.41422252,438.86507144468396,444.95673823328616,1 45751U 20038X   26043.75358756  .00061880  00000+0  14548-2 0  9992,2 45751  53.0548 322.9506 0004466 121.4837 238.6604 15.41422252312803
STARLINK-1477,45754,53.0527,0.0001946,15.12902094,526.0111731374254,528.6987906167715,1 45754U 20038AA  26043.21043010  .00020678  00000+0  11744-2 0  9995,2 45754  53.0527 328.6244 0001946  60.7912 299.3274 15.12902094312671
STARLINK-1478,45755,53.0552,0.0008642,15.50453452,409.5301931928161,421.2721445639054,1 45755U 20038AB  26043.78432468  .00122133  00000+0  20813-2 0  9993,2 45755  53.0552 317.8352 0008642 119.7944 240.3925 15.50453452312861
STARLINK-1484,45756,53.0023,0.0003679,15.87339563,307.2847169899296,312.2056607044833,1 45756U 20038AC  26043.91670139  .00168435  00000+0  61763-3 0  9993,2 45756  53.0023 183.5893 0003679 304.8286 272.5302 15.87339563  6068
STARLINK-1493,45759,53.055,0.000256,15.43650376,433.6023123717396,437.09081595659245,1 45759U 20038AF  26043.82416604  .00071741  00000+0  15623-2 0  9997,2 45759  53.0550 323.1488 0002560 121.4988 238.6268 15.43650376312792
STARLINK-1494,45760,53.0494,0.000158,15.69025377,360.62169959018775,362.7514838451716,1 45760U 20038AG  26043.81678867  .00069137  00000+0  58704-3 0  9993,2 45760  53.0494 274.8192 0001580 183.6088 176.4917 15.69025377313489
STARLINK-1502,45764,53.0549,0.0001579,15.40434684,443.7481223743416,445.9028139217826,1 45764U 20038AL  26043.91670139  .00682192  00000+0  15386-1 0  9991,2 45764  53.0549 324.0139 0001579  75.5478 317.2431 15.40434684  5852
STARLINK-1470,45772,53.0522,0.0002622,15.25546218,487.3451340594256,490.9463371259708,1 45772U 20038AU  26043.66800451  .00022570  00000+0  88878-3 0  9990,2 45772  53.0522 290.2394 0002622  93.8170 266.3127 15.25546218313253
STARLINK-1482,45773,53.1577,0.0001285,15.29356495,476.8538012862209,478.61576033388883,1 45773U 20038AV  26043.72707104  .00001638  00000+0  69068-4 0  9992,2 45773  53.1577 306.9281 0001285  89.1005 271.0142 15.29356495313029
STARLINK-1496,45780,53.0562,0.0008829,15.43724174,429.1139830119091,441.14484884915873,1 45780U 20038BC  26043.10243492  .00032942  00000+0  72333-3 0  9997,2 45780  53.0562 299.8076 0008829 113.6139 246.5794 15.43724174313056
STARLINK-1497,45781,53.0082,0.0004619,16.50362636,135.37082502235353,141.39078417023939,1 45781U 20038BD  26043.42871565  .15800035  12699-4  16747-3 0  9992,2 45781  53.0082 203.1300 0004619 305.8625  54.1996 16.50362636314441
STARLINK-1513,45786,53.1571,0.0001556,15.29369329,476.6296581548986,478.7631935170184,1 45786U 20038BJ  26043.14848307  .00012379  00000+0  44043-3 0  9992,2 45786  53.1571 309.7424 0001556  99.8999 260.2177 15.29369329312935
